CAS-2T & KS-1Q          
1 41847U 16066G   20348.15869561  .00000150  00000-0  32191-4 0  9997
2 41847  98.6306  40.2489 0366408  56.3568 307.2010 14.38125501215107
NAYIF-1 (EO-88)         
1 42017U 17008BX  20348.14613609  .00003194  00000-0  12249-3 0  9995
2 42017  97.3414  52.9602 0007415  58.8531 301.3435 15.27199788212815
ZHUHAI-1 02 (CAS-4B)    
1 42759U 17034B   20348.11497984  .00000534  00000-0  45681-4 0  9992
2 42759  43.0171 125.3344 0009099  71.1353  97.7494 15.09996913192974
ZHUHAI-1 01 (CAS-4A)    
1 42761U 17034D   20348.11777314  .00000599  00000-0  49529-4 0  9999
2 42761  43.0171 124.5025 0009552  71.9659 106.2322 15.10077349192976
MAX VALIER SAT          
1 42778U 17036P   20347.88041214  .00001802  00000-0  79307-4 0  9990
2 42778  97.2827  36.3804 0013649 111.8964 248.3726 15.23041521192886
RADFXSAT (FOX-1B)       
1 43017U 17073E   20347.72202995  .00000716  00000-0  60759-4 0  9990
2 43017  97.7168 253.0176 0255782 189.0583 170.5970 14.79208137165511
FOX-1D (AO-92)          
1 43137U 18004AC  20347.90948625  .00002236  00000-0  93508-4 0  9992
2 43137  97.4295  57.7216 0010026 140.7180 219.4787 15.24600517162237
DIWATA-2B               
1 43678U 18084H   20348.04381909  .00000564  00000-0  61769-4 0  9998
2 43678  97.9035 106.6607 0008940 313.9108  46.1347 14.91688371115645
ES'HAIL 2               
1 43700U 18090A   20347.91716088  .00000152  00000-0  00000-0 0  9996
2 43700   0.0195  65.3409 0001487 226.0551 146.6456  1.00272392  7497
FOX-1CLIFF (AO-95)      
1 43770U 18099N   20347.74065258  .00000937  00000-0  90536-4 0  9997
2 43770  97.6888  55.8468 0013496 326.6477  33.3892 14.95133428110553
ITASAT 1                
1 43786U 18099AE  20348.16648939  .00000293  00000-0  31667-4 0  9999
2 43786  97.6906  56.8118 0014081 318.2343  41.7802 14.95455741110643
JY1SAT (JO-97)          
1 43803U 18099AX  20348.15855386  .00000769  00000-0  74236-4 0  9991
2 43803  97.6867  56.5838 0013939 318.5121  41.5041 14.95662596110644
PSAT2 (NO-104)          
1 44354U 19036R   20347.55079360  .00021259  00000-0  29902-3 0  9994
2 44354  28.5287 287.9292 0346972  58.0798 305.3059 15.08009909 80689
BRICSAT2 (NO-103)       
1 44355U 19036S   20347.45519403  .00038956  00000-0  49389-3 0  9994
2 44355  28.5270 267.5077 0308997  91.2481 272.3526 15.17813796 80881
JAISAT-1                
1 44419U 19038F   20347.86468164  .00001723  00000-0  10038-3 0  9990
2 44419  97.5635 307.6427 0019890 233.3642 126.5761 15.13201099 79575
DUCHIFAT-3              
1 44854U 19089C   20347.72977629  .00000833  00000-0  73443-4 0  9996
2 44854  36.9635 124.6596 0007779  54.7191 305.4293 14.99246585 55064
RS-44 & BREEZE-KM R/B   
1 44909U 19096E   20347.92758392  .00000026  00000-0  54560-4 0  9994
2 44909  82.5224 236.7179 0217504 168.9658 191.6329 12.79707663 45017
ORBITAL FACTORY 2 (OF-2)
1 45113U 19071C   20347.95401178  .00003422  00000-0  11240-3 0  9995
2 45113  51.6415 220.7874 0012121 344.0352  16.0247 15.34351802 48527
HUSKYSAT-1              
1 45119U 19071J   20347.91039629  .00003465  00000-0  11319-3 0  9999
2 45119  51.6415 220.4959 0011462 340.1974  19.8562 15.34494161 48514
BY70-2                  
1 45857U 20042B   20348.11251638  .00001620  00000-0  23948-3 0  9999
2 45857  98.0010  59.7240 0012454  95.7088 264.5551 14.76539208 24042
SALSAT                  
1 46495U 20068K   20347.89750774  .00001444  00000-0  11078-3 0  9990
2 46495  97.6761 280.7054 0017054 347.6311  12.4492 15.03296103 11301
BY70-3                  
1 46839U 20079N   20348.22589236  .00004109  00000-0  13353-3 0  9994
2 46839  97.2627  59.7387 0008345 143.6921 301.0950 15.32435122  5674
